IRIDIUM 166             
1 43570U 18061B   25191.56882450 -.00000012  00000+0 -11375-4 0  9996
2 43570  86.3986 199.4711 0001928  88.9740 271.1676 14.34217488364431
IRIDIUM 158             
1 43571U 18061C   25191.53711163  .00000073  00000+0  19001-4 0  9995
2 43571  86.3980 199.4942 0002364  85.6423 274.5043 14.34217766364398
IRIDIUM 165             
1 43572U 18061D   25191.56249011  .00000103  00000+0  29890-4 0  9998
2 43572  86.3983 199.5233 0002188  91.7421 268.4025 14.34217007364420
IRIDIUM 155             
1 43573U 18061E   25191.52442652  .00000073  00000+0  18888-4 0  9992
2 43573  86.3980 199.4254 0002252  82.3909 277.7542 14.34218026364383
IRIDIUM 154             
1 43574U 18061F   25191.57516732  .00000013  00000+0 -23215-5 0  9995
2 43574  86.3987 199.5208 0002192  89.7687 270.3760 14.34217606364449
IRIDIUM 163             
1 43575U 18061G   25191.55613994  .00000088  00000+0  24433-4 0  9995
2 43575  86.3980 199.4549 0002444  87.4782 272.6694 14.34218191364419
IRIDIUM 156             
1 43576U 18061H   25191.53076928  .00000054  00000+0  12271-4 0  9994
2 43576  86.3980 199.4724 0002089  82.6016 277.5417 14.34217973364400
IRIDIUM 164             
1 43577U 18061J   25191.58150983  .00000007  00000+0 -46174-5 0  9993
2 43577  86.3985 199.4861 0002020  94.5700 265.5726 14.34217696364452
